{
  "type": "FeatureCollection",
  "features": [
    {
      "type": "Feature",
      "properties": {
        "norad_id": 40069,
        "name": "METEOR-M 2",
        "group": "weather",
        "lat": 27.529570714737112,
        "lon": -49.603861827141124,
        "alt_km": 822.2605472492496,
        "timestamp": "2025-12-02T21:34:00.915517+00:00",
        "meta_object_name": "METEOR-M 2",
        "meta_object_id": "2014-037A",
        "meta_epoch": "2025-12-02T11:17:57.914016",
        "meta_mean_motion": 14.21380031,
        "meta_eccentricity": 0.000468,
        "meta_inclination": 98.4892,
        "meta_ra_of_asc_node": 314.4496,
        "meta_arg_of_pericenter": 244.2374,
        "meta_mean_anomaly": 115.8321,
        "meta_ephemeris_type": 0,
        "meta_classification_type": "U",
        "meta_norad_cat_id": 40069,
        "meta_element_set_no": 999,
        "meta_rev_at_epoch": 59137,
        "meta_bstar": 0.00011474,
        "meta_mean_motion_dot": 2.09e-06,
        "meta_mean_motion_ddot": 0,
        "tle_line1": "1 40069U 14037A   25336.47080919  .00000209  00000+0  11474-3 0  9991",
        "tle_line2": "2 40069  98.4892 314.4496 0004680 244.2374 115.8321 14.21380031591375"
      },
      "geometry": {
        "type": "Point",
        "coordinates": [
          -49.603861827141124,
          27.529570714737112
        ]
      }
    },
    {
      "type": "Feature",
      "properties": {
        "norad_id": 40267,
        "name": "HIMAWARI-8",
        "group": "weather",
        "lat": -0.018683675947503982,
        "lon": 176.14028708592917,
        "alt_km": 35788.1125188488,
        "timestamp": "2025-12-02T21:34:00.915529+00:00",
        "meta_object_name": "HIMAWARI-8",
        "meta_object_id": "2014-060A",
        "meta_epoch": "2025-12-02T09:36:51.761376",
        "meta_mean_motion": 1.00270839,
        "meta_eccentricity": 0.0001288,
        "meta_inclination": 0.0438,
        "meta_ra_of_asc_node": 142.2785,
        "meta_arg_of_pericenter": 142.4407,
        "meta_mean_anomaly": 71.6851,
        "meta_ephemeris_type": 0,
        "meta_classification_type": "U",
        "meta_norad_cat_id": 40267,
        "meta_element_set_no": 999,
        "meta_rev_at_epoch": 4078,
        "meta_bstar": 0,
        "meta_mean_motion_dot": -2.55e-06,
        "meta_mean_motion_ddot": 0,
        "tle_line1": "1 40267U 14060A   25336.40059909 -.00000255  00000+0  00000+0 0  9996",
        "tle_line2": "2 40267   0.0438 142.2785 0001288 142.4407  71.6851  1.00270839 40783"
      },
      "geometry": {
        "type": "Point",
        "coordinates": [
          176.14028708592917,
          -0.018683675947503982
        ]
      }
    },
    {
      "type": "Feature",
      "properties": {
        "norad_id": 40367,
        "name": "FENGYUN 2G",
        "group": "weather",
        "lat": 4.453779070910352,
        "lon": 135.079180200056,
        "alt_km": 35795.306407959026,
        "timestamp": "2025-12-02T21:34:00.915541+00:00",
        "meta_object_name": "FENGYUN 2G",
        "meta_object_id": "2014-090A",
        "meta_epoch": "2025-12-01T19:25:27.039072",
        "meta_mean_motion": 1.00268232,
        "meta_eccentricity": 0.00030118,
        "meta_inclination": 5.1381,
        "meta_ra_of_asc_node": 75.2239,
        "meta_arg_of_pericenter": 193.0179,
        "meta_mean_anomaly": 193.7823,
        "meta_ephemeris_type": 0,
        "meta_classification_type": "U",
        "meta_norad_cat_id": 40367,
        "meta_element_set_no": 999,
        "meta_rev_at_epoch": 4002,
        "meta_bstar": 0,
        "meta_mean_motion_dot": -2.82e-06,
        "meta_mean_motion_ddot": 0,
        "tle_line1": "1 40367U 14090A   25335.80934073 -.00000282  00000+0  00000+0 0  9997",
        "tle_line2": "2 40367   5.1381  75.2239 0003011 193.0179 193.7823  1.00268232 40026"
      },
      "geometry": {
        "type": "Point",
        "coordinates": [
          135.079180200056,
          4.453779070910352
        ]
      }
    },
    {
      "type": "Feature",
      "properties": {
        "norad_id": 40732,
        "name": "METEOSAT-11 (MSG-4)",
        "group": "weather",
        "lat": -1.208844774020872,
        "lon": 44.96288206215106,
        "alt_km": 35785.66862893356,
        "timestamp": "2025-12-02T21:34:00.915554+00:00",
        "meta_object_name": "METEOSAT-11 (MSG-4)",
        "meta_object_id": "2015-034A",
        "meta_epoch": "2025-12-02T06:58:49.133280",
        "meta_mean_motion": 1.00277446,
        "meta_eccentricity": 2.54e-05,
        "meta_inclination": 2.7095,
        "meta_ra_of_asc_node": 72.0273,
        "meta_arg_of_pericenter": 161.6934,
        "meta_mean_anomaly": 311.8293,
        "meta_ephemeris_type": 0,
        "meta_classification_type": "U",
        "meta_norad_cat_id": 40732,
        "meta_element_set_no": 999,
        "meta_rev_at_epoch": 524,
        "meta_bstar": 0,
        "meta_mean_motion_dot": 8.4e-07,
        "meta_mean_motion_ddot": 0,
        "tle_line1": "1 40732U 15034A   25336.29084645  .00000084  00000+0  00000+0 0  9996",
        "tle_line2": "2 40732   2.7095  72.0273 0000254 161.6934 311.8293  1.00277446  5242"
      },
      "geometry": {
        "type": "Point",
        "coordinates": [
          44.96288206215106,
          -1.208844774020872
        ]
      }
    },
    {
      "type": "Feature",
      "properties": {
        "norad_id": 41105,
        "name": "ELEKTRO-L 2",
        "group": "weather",
        "lat": -4.856767348421559,
        "lon": 21.166751031047266,
        "alt_km": 35793.339531499434,
        "timestamp": "2025-12-02T21:34:00.915579+00:00",
        "meta_object_name": "ELEKTRO-L 2",
        "meta_object_id": "2015-074A",
        "meta_epoch": "2025-12-02T01:43:47.338752",
        "meta_mean_motion": 1.00269907,
        "meta_eccentricity": 0.00039368,
        "meta_inclination": 6.1965,
        "meta_ra_of_asc_node": 72.9528,
        "meta_arg_of_pericenter": 196.8313,
        "meta_mean_anomaly": 172.831,
        "meta_ephemeris_type": 0,
        "meta_classification_type": "U",
        "meta_norad_cat_id": 41105,
        "meta_element_set_no": 999,
        "meta_rev_at_epoch": 3653,
        "meta_bstar": 0,
        "meta_mean_motion_dot": -9.8e-07,
        "meta_mean_motion_ddot": 0,
        "tle_line1": "1 41105U 15074A   25336.07207568 -.00000098  00000+0  00000+0 0  9998",
        "tle_line2": "2 41105   6.1965  72.9528 0003936 196.8313 172.8310  1.00269907 36538"
      },
      "geometry": {
        "type": "Point",
        "coordinates": [
          21.166751031047266,
          -4.856767348421559
        ]
      }
    },
    {
      "type": "Feature",
      "properties": {
        "norad_id": 41752,
        "name": "INSAT-3DR",
        "group": "weather",
        "lat": 0.03659973133806048,
        "lon": 109.4482889097743,
        "alt_km": 35843.507742855356,
        "timestamp": "2025-12-02T21:34:00.915594+00:00",
        "meta_object_name": "INSAT-3DR",
        "meta_object_id": "2016-054A",
        "meta_epoch": "2025-12-02T02:08:59.925408",
        "meta_mean_motion": 1.00269631,
        "meta_eccentricity": 0.00143758,
        "meta_inclination": 0.0638,
        "meta_ra_of_asc_node": 89.7219,
        "meta_arg_of_pericenter": 179.0448,
        "meta_mean_anomaly": 268.7222,
        "meta_ephemeris_type": 0,
        "meta_classification_type": "U",
        "meta_norad_cat_id": 41752,
        "meta_element_set_no": 999,
        "meta_rev_at_epoch": 3384,
        "meta_bstar": 0,
        "meta_mean_motion_dot": -5.6e-07,
        "meta_mean_motion_ddot": 0,
        "tle_line1": "1 41752U 16054A   25336.08958247 -.00000056  00000+0  00000+0 0  9997",
        "tle_line2": "2 41752   0.0638  89.7219 0014375 179.0448 268.7222  1.00269631 33842"
      },
      "geometry": {
        "type": "Point",
        "coordinates": [
          109.4482889097743,
          0.03659973133806048
        ]
      }
    },
    {
      "type": "Feature",
      "properties": {
        "norad_id": 41836,
        "name": "HIMAWARI-9",
        "group": "weather",
        "lat": -0.023803417091754365,
        "lon": 176.18002457850767,
        "alt_km": 35793.03018258402,
        "timestamp": "2025-12-02T21:34:00.915608+00:00",
        "meta_object_name": "HIMAWARI-9",
        "meta_object_id": "2016-064A",
        "meta_epoch": "2025-12-02T11:21:38.666880",
        "meta_mean_motion": 1.00267593,
        "meta_eccentricity": 0.0002385,
        "meta_inclination": 0.0198,
        "meta_ra_of_asc_node": 328.7015,
        "meta_arg_of_pericenter": 332.4974,
        "meta_mean_anomaly": 81.5255,
        "meta_ephemeris_type": 0,
        "meta_classification_type": "U",
        "meta_norad_cat_id": 41836,
        "meta_element_set_no": 999,
        "meta_rev_at_epoch": 3323,
        "meta_bstar": 0,
        "meta_mean_motion_dot": 0,
        "meta_mean_motion_ddot": 0,
        "tle_line1": "1 41836U 16064A   25336.47336420  .00000000  00000+0  00000+0 0  9995",
        "tle_line2": "2 41836   0.0198 328.7015 0002385 332.4974  81.5255  1.00267593 33238"
      },
      "geometry": {
        "type": "Point",
        "coordinates": [
          176.18002457850767,
          -0.023803417091754365
        ]
      }
    }
  ]
}